OBJECT_NAME,OBJECT_ID,EPOCH,MEAN_MOTION,ECCENTRICITY,INCLINATION,RA_OF_ASC_NODE,ARG_OF_PERICENTER,MEAN_ANOMALY,EPHEMERIS_TYPE,CLASSIFICATION_TYPE,NORAD_CAT_ID,ELEMENT_SET_NO,REV_AT_EPOCH,BSTAR,MEAN_MOTION_DOT,MEAN_MOTION_DDOT
COSMOS 2507 (RODNIK-S 13),2015-050A,2026-07-14T14:24:28.289952,12.42927815,.00090547,82.4913,62.6009,294.8486,65.1651,0,U,40920,999,49026,.98727486E-3,.147E-5,0
COSMOS 2508 (RODNIK-S 14),2015-050B,2026-07-14T15:15:59.116032,12.42915317,.0013979,82.4865,61.0731,328.1337,31.8896,0,U,40921,999,49025,.78532838E-3,.119E-5,0
COSMOS 2509 (RODNIK-S 15),2015-050C,2026-07-14T13:50:19.612896,12.42884996,.00146543,82.4873,61.2153,345.5609,14.5050,0,U,40922,999,49028,.12165393E-2,.178E-5,0
LINGQIAO VIDEO A,2015-057B,2026-07-14T14:06:45.214848,14.77424279,.00165772,97.6626,189.0400,174.9836,185.1545,0,U,40959,999,57945,-.16992063E-4,-.17E-5,0
LINGQIAO VIDEO B,2015-057C,2026-07-14T15:07:51.149568,14.77532772,.00167713,97.6592,190.2367,174.8748,185.2638,0,U,40960,999,57950,.90465104E-4,.598E-5,0
JILIN-1,2015-057D,2026-07-14T15:09:35.767008,14.78200883,.00171712,97.6519,193.6375,168.6998,191.4603,0,U,40961,999,57966,.58953308E-4,.38E-5,0
FOX-1A (AO-85),2015-058D,2026-07-14T10:47:31.033536,14.91085582,.01323024,64.7725,194.2515,46.0955,315.0989,0,U,40967,999,11763,.15724465E-3,.1665E-4,0
SINOD-D 1,2015-058E,2026-07-14T08:28:14.313216,14.96082878,.01209938,64.7732,173.8274,42.4784,318.5615,0,U,40968,999,12072,.2266524E-3,.2777E-4,0
ELEKTRO-L 2,2015-074A,2026-07-14T09:55:32.085120,1.00272099,.00010268,6.7595,70.1832,212.6794,143.7919,0,U,41105,999,3877,0,-.129E-5,0
DAMPE,2015-078A,2026-07-14T14:56:08.915424,15.30851912,.00116428,97.4558,201.2254,347.6642,12.4312,0,U,41173,999,58874,.22188619E-4,.584E-5,0
ORBCOMM FM110,2015-081D,2026-07-14T08:39:42.835680,14.58917339,.00035724,47.0006,232.9546,219.5189,140.5437,0,U,41182,999,56159,.7046223E-4,.162E-5,0
ORBCOMM FM112,2015-081F,2026-07-14T12:52:18.000480,14.58938034,.00037551,46.9980,140.9155,325.1012,34.9627,0,U,41184,999,56294,.95890912E-4,.282E-5,0
ORBCOMM FM113,2015-081G,2026-07-14T05:45:31.641984,14.58881501,.00022745,46.9998,142.7075,317.9908,42.0803,0,U,41185,999,56288,.61713681E-4,.121E-5,0
ORBCOMM FM108,2015-081J,2026-07-14T08:08:03.844896,14.58909878,.00026979,47.0054,53.8203,318.9983,41.0700,0,U,41187,999,56404,.92976424E-4,.269E-5,0
ORBCOMM FM117,2015-081K,2026-07-14T07:18:42.645600,14.58896900,.00031193,47.0017,52.6096,325.9589,34.1096,0,U,41188,999,56408,.88288599E-4,.246E-5,0
ORBCOMM FM116,2015-081L,2026-07-14T13:24:35.545536,14.58905372,.00015052,47.0014,141.1971,227.8864,132.1894,0,U,41189,999,56293,.5182817E-4,.74E-6,0
ZIYUAN 3-02 (ZY 3-02),2016-033A,2026-07-14T14:49:28.131744,15.21431021,.0014018,97.3830,270.8644,186.8759,173.2287,0,U,41556,999,56215,.13732642E-3,.3021E-4,0
CARTOSAT-2C,2016-040A,2026-07-14T14:12:17.231904,15.19261995,.00096195,97.4473,255.1907,47.1228,313.0812,0,U,41599,999,55787,.13315443E-3,.2742E-4,0
LAPAN-A3,2016-040E,2026-07-14T14:27:58.344768,15.33275818,.0008258,97.1504,190.8524,278.8740,81.1568,0,U,41603,999,55901,.61720523E-4,.1911E-4,0
GAOFEN-3,2016-049A,2026-07-14T15:02:54.606624,14.42218404,.00017686,98.4011,202.9989,85.1069,275.0322,0,U,41727,999,52260,-.8646995E-5,-.72E-6,0
CAS-2T & KS-1Q,2016-066G,2026-07-14T06:01:16.298976,14.44769200,.03422891,98.3814,270.6774,47.6209,315.3423,0,U,41847,999,50870,.87694951E-4,.567E-5,0
YUNHAI-1 01,2016-068A,2026-07-14T14:45:39.932064,14.32721872,.00032599,98.5844,206.3668,350.2992,9.8129,0,U,41857,999,50575,.77806423E-4,.168E-5,0
RESOURCESAT-2A,2016-074A,2026-07-14T14:10:03.522720,14.21609560,.000245,98.7528,268.8695,30.3215,329.8104,0,U,41877,999,49819,.14361961E-3,.271E-5,0
TANSAT,2016-081A,2026-07-14T14:15:25.189920,14.59971533,.00194061,98.5365,196.6627,222.1509,137.8199,0,U,41898,999,50862,.64536689E-4,.259E-5,0
