COSMOS 2507 (RODNIK-S *)
1 40920U 15050A   26195.60032743  .00000147  00000+0  98727-3 0  9991
2 40920  82.4913  62.6009 0009054 294.8486  65.1651 12.42927815490262
COSMOS 2508 (RODNIK-S *)
1 40921U 15050B   26195.63610088  .00000119  00000+0  78533-3 0  9991
2 40921  82.4865  61.0731 0013979 328.1337  31.8896 12.42915317490255
COSMOS 2509 (RODNIK-S *)
1 40922U 15050C   26195.57661589  .00000178  00000+0  12165-2 0  9990
2 40922  82.4873  61.2153 0014654 345.5609  14.5050 12.42884996490282
LINGQIAO VIDEO A        
1 40959U 15057B   26195.58802332 -.00000170  00000+0 -16992-4 0  9999
2 40959  97.6626 189.0400 0016577 174.9836 185.1545 14.77424279579457
LINGQIAO VIDEO B        
1 40960U 15057C   26195.63045312  .00000598  00000+0  90465-4 0  9993
2 40960  97.6592 190.2367 0016771 174.8748 185.2638 14.77532772579502
JILIN-1                 
1 40961U 15057D   26195.63166397  .00000380  00000+0  58953-4 0  9996
2 40961  97.6519 193.6375 0017171 168.6998 191.4603 14.78200883579665
FOX-1A (AO-85)          
1 40967U 15058D   26195.44966474  .00001665  00000+0  15724-3 0  9991
2 40967  64.7725 194.2515 0132302  46.0955 315.0989 14.91085582117632
SINOD-D 1               
1 40968U 15058E   26195.35294344  .00002777  00000+0  22665-3 0  9999
2 40968  64.7732 173.8274 0120993  42.4784 318.5615 14.96082878120727
ELEKTRO-L 2             
1 41105U 15074A   26195.41356580 -.00000129  00000+0  00000+0 0  9994
2 41105   6.7595  70.1832 0001026 212.6794 143.7919  1.00272099 38775
DAMPE                   
1 41173U 15078A   26195.62232541  .00000584  00000+0  22189-4 0  9997
2 41173  97.4558 201.2254 0011642 347.6642  12.4312 15.30851912588748
ORBCOMM FM110           
1 41182U 15081D   26195.36091245  .00000162  00000+0  70462-4 0  9995
2 41182  47.0006 232.9546 0003572 219.5189 140.5437 14.58917339561598
ORBCOMM FM112           
1 41184U 15081F   26195.53631945  .00000282  00000+0  95891-4 0  9999
2 41184  46.9980 140.9155 0003755 325.1012  34.9627 14.58938034562947
ORBCOMM FM113           
1 41185U 15081G   26195.23994956  .00000121  00000+0  61714-4 0  9990
2 41185  46.9998 142.7075 0002274 317.9908  42.0803 14.58881501562881
ORBCOMM FM108           
1 41187U 15081J   26195.33893339  .00000269  00000+0  92976-4 0  9993
2 41187  47.0054  53.8203 0002697 318.9983  41.0700 14.58909878564049
ORBCOMM FM117           
1 41188U 15081K   26195.30466025  .00000246  00000+0  88289-4 0  9996
2 41188  47.0017  52.6096 0003119 325.9589  34.1096 14.58896900564082
ORBCOMM FM116           
1 41189U 15081L   26195.55874474  .00000074  00000+0  51828-4 0  9993
2 41189  47.0014 141.1971 0001505 227.8864 132.1894 14.58905372562930
ZIYUAN 3-02 (ZY 3-02)   
1 41556U 16033A   26195.61768671  .00003021  00000+0  13733-3 0  9994
2 41556  97.3830 270.8644 0014018 186.8759 173.2287 15.21431021562151
CARTOSAT-2C             
1 41599U 16040A   26195.59186611  .00002742  00000+0  13315-3 0  9999
2 41599  97.4473 255.1907 0009619  47.1228 313.0812 15.19261995557870
LAPAN-A3                
1 41603U 16040E   26195.60275862  .00001911  00000+0  61721-4 0  9996
2 41603  97.1504 190.8524 0008258 278.8740  81.1568 15.33275818559012
GAOFEN-3                
1 41727U 16049A   26195.62702091 -.00000072  00000+0 -86470-5 0  9991
2 41727  98.4011 202.9989 0001768  85.1069 275.0322 14.42218404522602
CAS-2T & KS-1Q          
1 41847U 16066G   26195.25088309  .00000567  00000+0  87695-4 0  9997
2 41847  98.3814 270.6774 0342289  47.6209 315.3423 14.44769200508706
YUNHAI-1 01             
1 41857U 16068A   26195.61504551  .00000168  00000+0  77806-4 0  9992
2 41857  98.5844 206.3668 0003259 350.2992   9.8129 14.32721872505753
RESOURCESAT-2A          
1 41877U 16074A   26195.59031855  .00000271  00000+0  14362-3 0  9992
2 41877  98.7528 268.8695 0002450  30.3215 329.8104 14.21609560498199
TANSAT                  
1 41898U 16081A   26195.59404155  .00000259  00000+0  64537-4 0  9996
2 41898  98.5365 196.6627 0019406 222.1509 137.8199 14.59971533508622
